[{"OBJECT_NAME":"NINGXIA-1 7","OBJECT_ID":"2021-064B","EPOCH":"2026-03-09T23:03:16.134624","MEAN_MOTION":14.08535138,"ECCENTRICITY":0.00060368,"INCLINATION":45.0039,"RA_OF_ASC_NODE":315.6009,"ARG_OF_PERICENTER":124.1771,"MEAN_ANOMALY":235.9639,"EPHEMERIS_TYPE":0,"CLASSIFICATION_TYPE":"U","NORAD_CAT_ID":49019,"ELEMENT_SET_NO":999,"REV_AT_EPOCH":24025,"BSTAR":0.00016183554,"MEAN_MOTION_DOT":1.48e-6,"MEAN_MOTION_DDOT":0},{"OBJECT_NAME":"FENGYUN 1C DEB","OBJECT_ID":"1999-025BPZ","EPOCH":"2026-03-09T10:59:14.967168","MEAN_MOTION":14.13879649,"ECCENTRICITY":0.00284813,"INCLINATION":98.7194,"RA_OF_ASC_NODE":150.275,"ARG_OF_PERICENTER":293.1396,"MEAN_ANOMALY":66.6777,"EPHEMERIS_TYPE":0,"CLASSIFICATION_TYPE":"U","NORAD_CAT_ID":31321,"ELEMENT_SET_NO":999,"REV_AT_EPOCH":58609,"BSTAR":0.00015879191,"MEAN_MOTION_DOT":2.59e-6,"MEAN_MOTION_DDOT":0}]
